0 SCOUT X-4 R/B
1 00933U 64076C   13283.16155909  .00000322  00000-0  11134-3 0  8811
2 00933 081.3419 180.0091 1080131 249.5606 098.6422 12.75264895244356
0 SCOUT X-4 R/B
1 00933U 64076C   13284.33841344  .00000444  00000-0  15382-3 0  8821
2 00933 081.3418 179.0914 1080162 246.8532 101.5298 12.75265544244503
0 SCOUT X-4 R/B
1 00933U 64076C   13285.75064658  .00000431  00000-0  14921-3 0  8838
2 00933 081.3415 177.9902 1080211 243.6037 105.0328 12.75266369244682
0 SCOUT X-4 R/B
1 00933U 64076C   13286.77059668  .00000538  00000-0  18629-3 0  8844
2 00933 081.3413 177.1949 1080268 241.2577 107.5870 12.75266706244817
0 SCOUT X-4 R/B
1 00933U 64076C   13288.10438504  .00000778  00000-0  26983-3 0  8852
2 00933 081.3409 176.1547 1080331 238.1906 110.9581 12.75269482244986
0 SCOUT X-4 R/B
1 00933U 64076C   13289.12434458  .00000601  00000-0  20785-3 0  8869
2 00933 081.3406 175.3594 1080367 235.8440 113.5611 12.75271065245111
0 SCOUT X-4 R/B
1 00933U 64076C   13290.14430634  .00000627  00000-0  21681-3 0  8870
2 00933 081.3404 174.5640 1080415 233.4981 116.1837 12.75271734245246
0 SCOUT X-4 R/B
1 00933U 64076C   13291.16427220  .00000603  00000-0  20807-3 0  8884
2 00933 081.3401 173.7687 1080454 231.1522 118.8263 12.75272946245376
0 SCOUT X-4 R/B
1 00933U 64076C   13292.18424167  .00000621  00000-0  21436-3 0  8894
2 00933 081.3398 172.9734 1080480 228.8064 121.4886 12.75273885245507
0 SCOUT X-4 R/B
1 00933U 64076C   13293.75343070  .00000754  00000-0  26040-3 0  8906
2 00933 081.3397 171.7497 1080480 225.1957 125.6239 12.75275075245703
0 SCOUT X-4 R/B
1 00933U 64076C   13295.16570876  .00000718  00000-0  24734-3 0  8918
2 00933 081.3395 170.6483 1080526 221.9487 129.3795 12.75277395245881
